ONEWEB-0710             
1 55173U 23004AK  24048.64253003  .00000079  00000+0  16967-3 0  9998
2 55173  87.9249 175.0609 0001424 107.3812 252.7475 13.17648326 55578
ONEWEB-0711             
1 55174U 23004AL  24048.61914264  .00000421  00000+0  11513-2 0  9991
2 55174  87.9005 190.1588 0001765 138.2378 221.8885 13.11418545 54350
ONEWEB-0713             
1 55175U 23004AM  24048.63698450 -.00000317  00000+0 -93147-3 0  9990
2 55175  87.9006 190.1629 0001665 119.6426 240.4868 13.11415664 54340
ONEWEB-0715             
1 55176U 23004AN  24048.63211832 -.00000072  00000+0 -23891-3 0  9993
2 55176  87.9004 190.1640 0001744 113.0678 247.0634 13.11415510 54385
ONEWEB-0716             
1 55177U 23004AP  24048.63620943  .00000090  00000+0  19797-3 0  9999
2 55177  87.9253 175.0511 0001902 100.6771 259.4575 13.17648754 55570
ONEWEB-0717             
1 55178U 23004AQ  24048.61880790  .00000062  00000+0  12576-3 0  9993
2 55178  87.9251 175.0208 0001351 144.7201 215.4020 13.17648877 55626
ONEWEB-0719             
1 55179U 23004AR  24048.62987301  .00000071  00000+0  14921-3 0  9997
2 55179  87.9251 175.0056 0001967 111.6341 248.5000 13.17647678 55576
ONEWEB-0530             
1 55796U 23029A   24048.56896357  .00000063  00000+0  12411-3 0  9995
2 55796  87.9137  83.7765 0001913 114.7422 245.3910 13.20770279 48868
